{
  "type": "FeatureCollection",
  "features": [
    {
      "type": "Feature",
      "properties": {
        "norad_id": 67060,
        "name": "HULIANWANG DIGUI-120",
        "group": "last-30-days",
        "lat": -42.11453848992737,
        "lon": -169.93365234729671,
        "alt_km": 804.1113712941524,
        "timestamp": "2025-12-24T22:42:20.748894+00:00",
        "meta_object_name": "HULIANWANG DIGUI-120",
        "meta_object_id": "2025-295B",
        "meta_epoch": "2025-12-23T18:39:46.505376",
        "meta_mean_motion": 14.25711377,
        "meta_eccentricity": 0.0013178,
        "meta_inclination": 50.0058,
        "meta_ra_of_asc_node": 325.6343,
        "meta_arg_of_pericenter": 286.4479,
        "meta_mean_anomaly": 73.4987,
        "meta_ephemeris_type": 0,
        "meta_classification_type": "U",
        "meta_norad_cat_id": 67060,
        "meta_element_set_no": 999,
        "meta_rev_at_epoch": 169,
        "meta_bstar": 6.7209387e-05,
        "meta_mean_motion_dot": 1e-08,
        "meta_mean_motion_ddot": 0,
        "tle_line1": "1 67060U 25295B   25357.77762159  .00000001  00000+0  67209-4 0  9996",
        "tle_line2": "2 67060  50.0058 325.6343 0013178 286.4479  73.4987 14.25711377  1697"
      },
      "geometry": {
        "type": "Point",
        "coordinates": [
          -169.93365234729671,
          -42.11453848992737
        ]
      }
    },
    {
      "type": "Feature",
      "properties": {
        "norad_id": 67061,
        "name": "HULIANWANG DIGUI-121",
        "group": "last-30-days",
        "lat": -37.16858723835898,
        "lon": -179.7613484269937,
        "alt_km": 806.9965759363295,
        "timestamp": "2025-12-24T22:42:20.748904+00:00",
        "meta_object_name": "HULIANWANG DIGUI-121",
        "meta_object_id": "2025-295C",
        "meta_epoch": "2025-12-23T10:16:36.437664",
        "meta_mean_motion": 14.25038967,
        "meta_eccentricity": 0.00134061,
        "meta_inclination": 50.0019,
        "meta_ra_of_asc_node": 327.1083,
        "meta_arg_of_pericenter": 283.4183,
        "meta_mean_anomaly": 76.5236,
        "meta_ephemeris_type": 0,
        "meta_classification_type": "U",
        "meta_norad_cat_id": 67061,
        "meta_element_set_no": 999,
        "meta_rev_at_epoch": 164,
        "meta_bstar": -3.3550159e-05,
        "meta_mean_motion_dot": -2.39e-06,
        "meta_mean_motion_ddot": 0,
        "tle_line1": "1 67061U 25295C   25357.42819951 -.00000239  00000+0 -33550-4 0  9999",
        "tle_line2": "2 67061  50.0019 327.1083 0013406 283.4183  76.5236 14.25038967  1649"
      },
      "geometry": {
        "type": "Point",
        "coordinates": [
          -179.7613484269937,
          -37.16858723835898
        ]
      }
    },
    {
      "type": "Feature",
      "properties": {
        "norad_id": 67062,
        "name": "HULIANWANG DIGUI-122",
        "group": "last-30-days",
        "lat": -43.17761662503057,
        "lon": -167.33406511307524,
        "alt_km": 804.4797869388713,
        "timestamp": "2025-12-24T22:42:20.748914+00:00",
        "meta_object_name": "HULIANWANG DIGUI-122",
        "meta_object_id": "2025-295D",
        "meta_epoch": "2025-12-24T06:25:43.579200",
        "meta_mean_motion": 14.25757793,
        "meta_eccentricity": 0.00131634,
        "meta_inclination": 50.0052,
        "meta_ra_of_asc_node": 323.5589,
        "meta_arg_of_pericenter": 294.0205,
        "meta_mean_anomaly": 65.933,
        "meta_ephemeris_type": 0,
        "meta_classification_type": "U",
        "meta_norad_cat_id": 67062,
        "meta_element_set_no": 999,
        "meta_rev_at_epoch": 176,
        "meta_bstar": 7.1678156e-05,
        "meta_mean_motion_dot": 1.1e-07,
        "meta_mean_motion_ddot": 0,
        "tle_line1": "1 67062U 25295D   25358.26786550  .00000011  00000+0  71678-4 0  9990",
        "tle_line2": "2 67062  50.0052 323.5589 0013163 294.0205  65.9330 14.25757793  1766"
      },
      "geometry": {
        "type": "Point",
        "coordinates": [
          -167.33406511307524,
          -43.17761662503057
        ]
      }
    },
    {
      "type": "Feature",
      "properties": {
        "norad_id": 67063,
        "name": "HULIANWANG DIGUI-123",
        "group": "last-30-days",
        "lat": -45.84327150196013,
        "lon": -159.48508727625878,
        "alt_km": 803.608698539224,
        "timestamp": "2025-12-24T22:42:20.748925+00:00",
        "meta_object_name": "HULIANWANG DIGUI-123",
        "meta_object_id": "2025-295E",
        "meta_epoch": "2025-12-23T18:37:38.191872",
        "meta_mean_motion": 14.25890271,
        "meta_eccentricity": 0.00124733,
        "meta_inclination": 50.0059,
        "meta_ra_of_asc_node": 325.6275,
        "meta_arg_of_pericenter": 291.5304,
        "meta_mean_anomaly": 68.428,
        "meta_ephemeris_type": 0,
        "meta_classification_type": "U",
        "meta_norad_cat_id": 67063,
        "meta_element_set_no": 999,
        "meta_rev_at_epoch": 169,
        "meta_bstar": 6.4661609e-05,
        "meta_mean_motion_dot": -5e-08,
        "meta_mean_motion_ddot": 0,
        "tle_line1": "1 67063U 25295E   25357.77613648 -.00000005  00000+0  64662-4 0  9992",
        "tle_line2": "2 67063  50.0059 325.6275 0012473 291.5304  68.4280 14.25890271  1697"
      },
      "geometry": {
        "type": "Point",
        "coordinates": [
          -159.48508727625878,
          -45.84327150196013
        ]
      }
    },
    {
      "type": "Feature",
      "properties": {
        "norad_id": 67064,
        "name": "HULIANWANG DIGUI-124",
        "group": "last-30-days",
        "lat": -46.859551279621144,
        "lon": -155.71633773452697,
        "alt_km": 802.7750343040025,
        "timestamp": "2025-12-24T22:42:20.748934+00:00",
        "meta_object_name": "HULIANWANG DIGUI-124",
        "meta_object_id": "2025-295F",
        "meta_epoch": "2025-12-22T05:36:45.096192",
        "meta_mean_motion": 14.25948838,
        "meta_eccentricity": 0.00121422,
        "meta_inclination": 50.0035,
        "meta_ra_of_asc_node": 332.1235,
        "meta_arg_of_pericenter": 280.5756,
        "meta_mean_anomaly": 79.379,
        "meta_ephemeris_type": 0,
        "meta_classification_type": "U",
        "meta_norad_cat_id": 67064,
        "meta_element_set_no": 999,
        "meta_rev_at_epoch": 147,
        "meta_bstar": -0.00021789546,
        "meta_mean_motion_dot": -6.84e-06,
        "meta_mean_motion_ddot": 0,
        "tle_line1": "1 67064U 25295F   25356.23385528 -.00000684  00000+0 -21790-3 0  9994",
        "tle_line2": "2 67064  50.0035 332.1235 0012142 280.5756  79.3790 14.25948838  1479"
      },
      "geometry": {
        "type": "Point",
        "coordinates": [
          -155.71633773452697,
          -46.859551279621144
        ]
      }
    },
    {
      "type": "Feature",
      "properties": {
        "norad_id": 67065,
        "name": "HULIANWANG DIGUI-125",
        "group": "last-30-days",
        "lat": -46.94243823929299,
        "lon": -155.36858932439443,
        "alt_km": 803.2757277237315,
        "timestamp": "2025-12-24T22:42:20.748945+00:00",
        "meta_object_name": "HULIANWANG DIGUI-125",
        "meta_object_id": "2025-295G",
        "meta_epoch": "2025-12-24T03:01:26.356800",
        "meta_mean_motion": 14.25956035,
        "meta_eccentricity": 0.00122653,
        "meta_inclination": 50.0009,
        "meta_ra_of_asc_node": 324.1276,
        "meta_arg_of_pericenter": 293.4537,
        "meta_mean_anomaly": 66.5087,
        "meta_ephemeris_type": 0,
        "meta_classification_type": "U",
        "meta_norad_cat_id": 67065,
        "meta_element_set_no": 999,
        "meta_rev_at_epoch": 174,
        "meta_bstar": 6.5028559e-05,
        "meta_mean_motion_dot": -4e-08,
        "meta_mean_motion_ddot": 0,
        "tle_line1": "1 67065U 25295G   25358.12599950 -.00000004  00000+0  65029-4 0  9990",
        "tle_line2": "2 67065  50.0009 324.1276 0012265 293.4537  66.5087 14.25956035  1748"
      },
      "geometry": {
        "type": "Point",
        "coordinates": [
          -155.36858932439443,
          -46.94243823929299
        ]
      }
    },
    {
      "type": "Feature",
      "properties": {
        "norad_id": 67066,
        "name": "HULIANWANG DIGUI-126",
        "group": "last-30-days",
        "lat": -48.82051352137285,
        "lon": -145.6599965467351,
        "alt_km": 802.4388941860461,
        "timestamp": "2025-12-24T22:42:20.748957+00:00",
        "meta_object_name": "HULIANWANG DIGUI-126",
        "meta_object_id": "2025-295H",
        "meta_epoch": "2025-12-24T06:21:28.499616",
        "meta_mean_motion": 14.26099173,
        "meta_eccentricity": 0.00114198,
        "meta_inclination": 50.0012,
        "meta_ra_of_asc_node": 323.5281,
        "meta_arg_of_pericenter": 291.1473,
        "meta_mean_anomaly": 68.8221,
        "meta_ephemeris_type": 0,
        "meta_classification_type": "U",
        "meta_norad_cat_id": 67066,
        "meta_element_set_no": 999,
        "meta_rev_at_epoch": 176,
        "meta_bstar": 7.4797066e-05,
        "meta_mean_motion_dot": 2e-07,
        "meta_mean_motion_ddot": 0,
        "tle_line1": "1 67066U 25295H   25358.26491319  .00000020  00000+0  74797-4 0  9995",
        "tle_line2": "2 67066  50.0012 323.5281 0011419 291.1473  68.8221 14.26099173  1765"
      },
      "geometry": {
        "type": "Point",
        "coordinates": [
          -145.6599965467351,
          -48.82051352137285
        ]
      }
    }
  ]
}